AETHER-2                
1 58299U 23174AV  26068.71793741  .00008341  00000+0  26166-3 0  9990
2 58299  97.3931 151.9008 0008630 139.5247 220.6639 15.33264165129982
STARLINK-34603          
1 65220U 25176Y   26068.51923312  .00027017  00000+0  92132-3 0  9990
2 65220  53.1574 153.5708 0001343  71.6489 288.4657 15.30187827 33094
